{"type": "FeatureCollection", "features": [ {"type": "Feature", "properties": {"norad_id": 66990, "name": "TJS-22", "group": "last-30-days", "lat": 1.9509021652179888, "lon": 19.43085588210569, "alt_km": 35790.891954031176, "timestamp": "2025-12-27T14:26:29.245312+00:00", "meta": {"OBJECT_NAME": "TJS-22", "OBJECT_ID": "2025-290A", "EPOCH": "2025-12-26T08:16:12.456768", "MEAN_MOTION": 1.00271724, "ECCENTRICITY": 0.00033766, "INCLINATION": 1.9542, "RA_OF_ASC_NODE": 285.0436, "ARG_OF_PERICENTER": 343.3803, "MEAN_ANOMALY": 17.1692, "EPHEMERIS_TYPE": 0, "CLASSIFICATION_TYPE": "U", "NORAD_CAT_ID": 66990, "ELEMENT_SET_NO": 999, "REV_AT_EPOCH": 29, "BSTAR": 0, "MEAN_MOTION_DOT": 1.6e-07, "MEAN_MOTION_DDOT": 0}, "tle": {"line1": "1 66990U 25290A   25360.34458862  .00000016  00000+0  00000+0 0  9999", "line2": "2 66990   1.9542 285.0436 0003376 343.3803  17.1692  1.00271724   295"}}, "geometry": {"type": "Point", "coordinates": [19.43085588210569, 1.9509021652179888]}}, {"type": "Feature", "properties": {"norad_id": 66991, "name": "CZ-3B R/B", "group": "last-30-days", "lat": 22.55258447727689, "lon": -14.183368205571401, "alt_km": 17332.168285757238, "timestamp": "2025-12-27T14:26:29.245326+00:00", "meta": {"OBJECT_NAME": "CZ-3B R/B", "OBJECT_ID": "2025-290B", "EPOCH": "2025-12-15T17:23:33.043200", "MEAN_MOTION": 2.38388611, "ECCENTRICITY": 0.7240884, "INCLINATION": 28.4636, "RA_OF_ASC_NODE": 300.4666, "ARG_OF_PERICENTER": 182.7002, "MEAN_ANOMALY": 168.625, "EPHEMERIS_TYPE": 0, "CLASSIFICATION_TYPE": "U", "NORAD_CAT_ID": 66991, "ELEMENT_SET_NO": 999, "REV_AT_EPOCH": 16, "BSTAR": 0.00075879, "MEAN_MOTION_DOT": 0.00057911, "MEAN_MOTION_DDOT": -2.0514e-07}, "tle": {"line1": "1 66991U 25290B   25349.72468800  .00057911 -20514-6  75879-3 0  9998", "line2": "2 66991  28.4636 300.4666 7240884 182.7002 168.6250  2.38388611   165"}}, "geometry": {"type": "Point", "coordinates": [-14.183368205571401, 22.55258447727689]}}, {"type": "Feature", "properties": {"norad_id": 66993, "name": "2025-292A", "group": "last-30-days", "lat": 15.882570638576068, "lon": -103.80180391953591, "alt_km": 547.6605935886009, "timestamp": "2025-12-27T14:26:29.245336+00:00", "meta": {"OBJECT_NAME": "2025-292A", "OBJECT_ID": "2025-292A", "EPOCH": "2025-12-27T05:44:02.121216", "MEAN_MOTION": 15.04606757, "ECCENTRICITY": 0.00147896, "INCLINATION": 97.6491, "RA_OF_ASC_NODE": 73.6476, "ARG_OF_PERICENTER": 220.5754, "MEAN_ANOMALY": 139.4371, "EPHEMERIS_TYPE": 0, "CLASSIFICATION_TYPE": "U", "NORAD_CAT_ID": 66993, "ELEMENT_SET_NO": 999, "REV_AT_EPOCH": 257, "BSTAR": 0.00036114555, "MEAN_MOTION_DOT": 5.021e-05, "MEAN_MOTION_DDOT": 0}, "tle": {"line1": "1 66993U 25292A   25361.23891344  .00005021  00000+0  36115-3 0  9990", "line2": "2 66993  97.6491  73.6476 0014789 220.5754 139.4371 15.04606757  2571"}}, "geometry": {"type": "Point", "coordinates": [-103.80180391953591, 15.882570638576068]}}, {"type": "Feature", "properties": {"norad_id": 66994, "name": "2025-292B", "group": "last-30-days", "lat": 13.050121274631447, "lon": -104.2049113163615, "alt_km": 547.6675173804624, "timestamp": "2025-12-27T14:26:29.245346+00:00", "meta": {"OBJECT_NAME": "2025-292B", "OBJECT_ID": "2025-292B", "EPOCH": "2025-12-26T21:44:28.806144", "MEAN_MOTION": 15.04654531, "ECCENTRICITY": 0.0014552, "INCLINATION": 97.6501, "RA_OF_ASC_NODE": 73.3208, "ARG_OF_PERICENTER": 222.0345, "MEAN_ANOMALY": 137.9766, "EPHEMERIS_TYPE": 0, "CLASSIFICATION_TYPE": "U", "NORAD_CAT_ID": 66994, "ELEMENT_SET_NO": 999, "REV_AT_EPOCH": 252, "BSTAR": 0.00041508, "MEAN_MOTION_DOT": 5.788e-05, "MEAN_MOTION_DDOT": 0}, "tle": {"line1": "1 66994U 25292B   25360.90588896  .00005788  00000+0  41508-3 0  9991", "line2": "2 66994  97.6501  73.3208 0014552 222.0345 137.9766 15.04654531  2524"}}, "geometry": {"type": "Point", "coordinates": [-104.2049113163615, 13.050121274631447]}}, {"type": "Feature", "properties": {"norad_id": 66995, "name": "2025-292C", "group": "last-30-days", "lat": 11.785477699426103, "lon": -104.3846695839252, "alt_km": 547.5625249560044, "timestamp": "2025-12-27T14:26:29.245356+00:00", "meta": {"OBJECT_NAME": "2025-292C", "OBJECT_ID": "2025-292C", "EPOCH": "2025-12-25T05:50:07.257120", "MEAN_MOTION": 15.04668363, "ECCENTRICITY": 0.0014688, "INCLINATION": 97.6495, "RA_OF_ASC_NODE": 71.6733, "ARG_OF_PERICENTER": 227.9665, "MEAN_ANOMALY": 132.0312, "EPHEMERIS_TYPE": 0, "CLASSIFICATION_TYPE": "U", "NORAD_CAT_ID": 66995, "ELEMENT_SET_NO": 999, "REV_AT_EPOCH": 227, "BSTAR": 0.00041226, "MEAN_MOTION_DOT": 5.751e-05, "MEAN_MOTION_DDOT": 0}, "tle": {"line1": "1 66995U 25292C   25359.24313955  .00005751  00000+0  41226-3 0  9996", "line2": "2 66995  97.6495  71.6733 0014688 227.9665 132.0312 15.04668363  2273"}}, "geometry": {"type": "Point", "coordinates": [-104.3846695839252, 11.785477699426103]}}, {"type": "Feature", "properties": {"norad_id": 66996, "name": "2025-292D", "group": "last-30-days", "lat": 9.788716148807397, "lon": -104.66311440862293, "alt_km": 548.3074211387175, "timestamp": "2025-12-27T14:26:29.245366+00:00", "meta": {"OBJECT_NAME": "2025-292D", "OBJECT_ID": "2025-292D", "EPOCH": "2025-12-25T05:49:36.025248", "MEAN_MOTION": 15.04678565, "ECCENTRICITY": 0.0013797, "INCLINATION": 97.6491, "RA_OF_ASC_NODE": 71.6729, "ARG_OF_PERICENTER": 230.5158, "MEAN_ANOMALY": 129.4848, "EPHEMERIS_TYPE": 0, "CLASSIFICATION_TYPE": "U", "NORAD_CAT_ID": 66996, "ELEMENT_SET_NO": 999, "REV_AT_EPOCH": 227, "BSTAR": 0.00027339, "MEAN_MOTION_DOT": 3.792e-05, "MEAN_MOTION_DDOT": 0}, "tle": {"line1": "1 66996U 25292D   25359.24277807  .00003792  00000+0  27339-3 0  9994", "line2": "2 66996  97.6491  71.6729 0013797 230.5158 129.4848 15.04678565  2271"}}, "geometry": {"type": "Point", "coordinates": [-104.66311440862293, 9.788716148807397]}}, {"type": "Feature", "properties": {"norad_id": 66997, "name": "2025-292E", "group": "last-30-days", "lat": 4.509221347061624, "lon": -105.37760956674968, "alt_km": 547.9394006817456, "timestamp": "2025-12-27T14:26:29.245376+00:00", "meta": {"OBJECT_NAME": "2025-292E", "OBJECT_ID": "2025-292E", "EPOCH": "2025-12-27T05:41:03.045984", "MEAN_MOTION": 15.04790868, "ECCENTRICITY": 0.00143704, "INCLINATION": 97.6508, "RA_OF_ASC_NODE": 73.6536, "ARG_OF_PERICENTER": 224.7355, "MEAN_ANOMALY": 135.2713, "EPHEMERIS_TYPE": 0, "CLASSIFICATION_TYPE": "U", "NORAD_CAT_ID": 66997, "ELEMENT_SET_NO": 999, "REV_AT_EPOCH": 256, "BSTAR": 0.00037984132, "MEAN_MOTION_DOT": 5.31e-05, "MEAN_MOTION_DDOT": 0}, "tle": {"line1": "1 66997U 25292E   25361.23684081  .00005310  00000+0  37984-3 0  9998", "line2": "2 66997  97.6508  73.6536 0014370 224.7355 135.2713 15.04790868  2560"}}, "geometry": {"type": "Point", "coordinates": [-105.37760956674968, 4.509221347061624]}}, {"type": "Feature", "properties": {"norad_id": 66998, "name": "2025-292F", "group": "last-30-days", "lat": -5.8480035073660925, "lon": -106.76582224227536, "alt_km": 546.9260432063766, "timestamp": "2025-12-27T14:26:29.245388+00:00", "meta": {"OBJECT_NAME": "2025-292F", "OBJECT_ID": "2025-292F", "EPOCH": "2025-12-27T07:14:04.855776", "MEAN_MOTION": 15.04981137, "ECCENTRICITY": 0.00155147, "INCLINATION": 97.6528, "RA_OF_ASC_NODE": 73.7257, "ARG_OF_PERICENTER": 225.3405, "MEAN_ANOMALY": 134.6558, "EPHEMERIS_TYPE": 0, "CLASSIFICATION_TYPE": "U", "NORAD_CAT_ID": 66998, "ELEMENT_SET_NO": 999, "REV_AT_EPOCH": 258, "BSTAR": 0.00050362145, "MEAN_MOTION_DOT": 7.102e-05, "MEAN_MOTION_DDOT": 0}, "tle": {"line1": "1 66998U 25292F   25361.30144509  .00007102  00000+0  50362-3 0  9999", "line2": "2 66998  97.6528  73.7257 0015514 225.3405 134.6558 15.04981137  2581"}}, "geometry": {"type": "Point", "coordinates": [-106.76582224227536, -5.8480035073660925]}}, {"type": "Feature", "properties": {"norad_id": 66999, "name": "2025-292G", "group": "last-30-days", "lat": -9.807439136760374, "lon": -107.3050798289952, "alt_km": 547.2260179314417, "timestamp": "2025-12-27T14:26:29.245400+00:00", "meta": {"OBJECT_NAME": "2025-292G", "OBJECT_ID": "2025-292G", "EPOCH": "2025-12-27T07:13:02.331552", "MEAN_MOTION": 15.05045401, "ECCENTRICITY": 0.0015021, "INCLINATION": 97.6538, "RA_OF_ASC_NODE": 73.7286, "ARG_OF_PERICENTER": 227.3131, "MEAN_ANOMALY": 132.6831, "EPHEMERIS_TYPE": 0, "CLASSIFICATION_TYPE": "U", "NORAD_CAT_ID": 66999, "ELEMENT_SET_NO": 999, "REV_AT_EPOCH": 258, "BSTAR": 0.00050130827, "MEAN_MOTION_DOT": 7.08e-05, "MEAN_MOTION_DDOT": 0}, "tle": {"line1": "1 66999U 25292G   25361.30072143  .00007080  00000+0  50131-3 0  9993", "line2": "2 66999  97.6538  73.7286 0015021 227.3131 132.6831 15.05045401  2584"}}, "geometry": {"type": "Point", "coordinates": [-107.3050798289952, -9.807439136760374]}}, {"type": "Feature", "properties": {"norad_id": 67000, "name": "2025-292H", "group": "last-30-days", "lat": -10.734286591059867, "lon": -107.43087350552602, "alt_km": 547.1274239798558, "timestamp": "2025-12-27T14:26:29.245410+00:00", "meta": {"OBJECT_NAME": "2025-292H", "OBJECT_ID": "2025-292H", "EPOCH": "2025-12-27T07:12:48.108384", "MEAN_MOTION": 15.05082529, "ECCENTRICITY": 0.001497, "INCLINATION": 97.6551, "RA_OF_ASC_NODE": 73.7316, "ARG_OF_PERICENTER": 227.1967, "MEAN_ANOMALY": 132.8002, "EPHEMERIS_TYPE": 0, "CLASSIFICATION_TYPE": "U", "NORAD_CAT_ID": 67000, "ELEMENT_SET_NO": 999, "REV_AT_EPOCH": 245, "BSTAR": 0.00059907653, "MEAN_MOTION_DOT": 8.483e-05, "MEAN_MOTION_DDOT": 0}, "tle": {"line1": "1 67000U 25292H   25361.30055681  .00008483  00000+0  59908-3 0  9994", "line2": "2 67000  97.6551  73.7316 0014970 227.1967 132.8002 15.05082529  2454"}}, "geometry": {"type": "Point", "coordinates": [-107.43087350552602, -10.734286591059867]}}]}